{
  "type": "FeatureCollection",
  "features": [
    {
      "type": "Feature",
      "properties": {
        "norad_id": 40128,
        "name": "GSAT0201 (GALILEO 5)",
        "group": "gnss",
        "lat": -15.583083095255807,
        "lon": -93.48567901890769,
        "alt_km": 26043.156044759206,
        "timestamp": "2025-12-26T08:37:54.823096+00:00",
        "meta_object_name": "GSAT0201 (GALILEO 5)",
        "meta_object_id": "2014-050A",
        "meta_epoch": "2025-12-25T20:43:24.583008",
        "meta_mean_motion": 1.85519608,
        "meta_eccentricity": 0.1649187,
        "meta_inclination": 49.0615,
        "meta_ra_of_asc_node": 280.5285,
        "meta_arg_of_pericenter": 172.7701,
        "meta_mean_anomaly": 189.9925,
        "meta_ephemeris_type": 0,
        "meta_classification_type": "U",
        "meta_norad_cat_id": 40128,
        "meta_element_set_no": 999,
        "meta_rev_at_epoch": 7510,
        "meta_bstar": 0,
        "meta_mean_motion_dot": -4.2e-07,
        "meta_mean_motion_ddot": 0,
        "tle_line1": "1 40128U 14050A   25359.86347897 -.00000042  00000+0  00000+0 0  9996",
        "tle_line2": "2 40128  49.0615 280.5285 1649187 172.7701 189.9925  1.85519608 75102"
      },
      "geometry": {
        "type": "Point",
        "coordinates": [
          -93.48567901890769,
          -15.583083095255807
        ]
      }
    },
    {
      "type": "Feature",
      "properties": {
        "norad_id": 40129,
        "name": "GSAT0202 (GALILEO 6)",
        "group": "gnss",
        "lat": 16.198004517314974,
        "lon": 85.01259857336454,
        "alt_km": 17091.159562826142,
        "timestamp": "2025-12-26T08:37:54.823107+00:00",
        "meta_object_name": "GSAT0202 (GALILEO 6)",
        "meta_object_id": "2014-050B",
        "meta_epoch": "2025-12-23T23:07:46.341984",
        "meta_mean_motion": 1.85520106,
        "meta_eccentricity": 0.16495716,
        "meta_inclination": 49.08,
        "meta_ra_of_asc_node": 279.6897,
        "meta_arg_of_pericenter": 173.4584,
        "meta_mean_anomaly": 189.053,
        "meta_ephemeris_type": 0,
        "meta_classification_type": "U",
        "meta_norad_cat_id": 40129,
        "meta_element_set_no": 999,
        "meta_rev_at_epoch": 7723,
        "meta_bstar": 0,
        "meta_mean_motion_dot": -3.5e-07,
        "meta_mean_motion_ddot": 0,
        "tle_line1": "1 40129U 14050B   25357.96373081 -.00000035  00000+0  00000+0 0  9992",
        "tle_line2": "2 40129  49.0800 279.6897 1649571 173.4584 189.0530  1.85520106 77235"
      },
      "geometry": {
        "type": "Point",
        "coordinates": [
          85.01259857336454,
          16.198004517314974
        ]
      }
    },
    {
      "type": "Feature",
      "properties": {
        "norad_id": 40269,
        "name": "IRNSS-1C",
        "group": "gnss",
        "lat": -3.512495435303425,
        "lon": -52.66050248002136,
        "alt_km": 35849.5282617686,
        "timestamp": "2025-12-26T08:37:54.823119+00:00",
        "meta_object_name": "IRNSS-1C",
        "meta_object_id": "2014-061A",
        "meta_epoch": "2025-12-25T19:23:21.836832",
        "meta_mean_motion": 1.00273138,
        "meta_eccentricity": 0.00181158,
        "meta_inclination": 6.0752,
        "meta_ra_of_asc_node": 92.3596,
        "meta_arg_of_pericenter": 0.8311,
        "meta_mean_anomaly": 15.2345,
        "meta_ephemeris_type": 0,
        "meta_classification_type": "U",
        "meta_norad_cat_id": 40269,
        "meta_element_set_no": 999,
        "meta_rev_at_epoch": 4095,
        "meta_bstar": 0,
        "meta_mean_motion_dot": -1.42e-06,
        "meta_mean_motion_ddot": 0,
        "tle_line1": "1 40269U 14061A   25359.80789163 -.00000142  00000+0  00000+0 0  9995",
        "tle_line2": "2 40269   6.0752  92.3596 0018115   0.8311  15.2345  1.00273138 40959"
      },
      "geometry": {
        "type": "Point",
        "coordinates": [
          -52.66050248002136,
          -3.512495435303425
        ]
      }
    },
    {
      "type": "Feature",
      "properties": {
        "norad_id": 40294,
        "name": "GPS BIIF-8  (PRN 03)",
        "group": "gnss",
        "lat": -34.97636806267214,
        "lon": 10.459174595390069,
        "alt_km": 20246.741597345554,
        "timestamp": "2025-12-26T08:37:54.823133+00:00",
        "meta_object_name": "GPS BIIF-8  (PRN 03)",
        "meta_object_id": "2014-068A",
        "meta_epoch": "2025-12-23T10:16:22.808064",
        "meta_mean_motion": 2.00565491,
        "meta_eccentricity": 0.00608386,
        "meta_inclination": 56.8656,
        "meta_ra_of_asc_node": 37.7327,
        "meta_arg_of_pericenter": 68.9718,
        "meta_mean_anomaly": 291.747,
        "meta_ephemeris_type": 0,
        "meta_classification_type": "U",
        "meta_norad_cat_id": 40294,
        "meta_element_set_no": 999,
        "meta_rev_at_epoch": 8168,
        "meta_bstar": 0,
        "meta_mean_motion_dot": -4.8e-07,
        "meta_mean_motion_ddot": 0,
        "tle_line1": "1 40294U 14068A   25357.42804176 -.00000048  00000+0  00000+0 0  9993",
        "tle_line2": "2 40294  56.8656  37.7327 0060838  68.9718 291.7470  2.00565491 81685"
      },
      "geometry": {
        "type": "Point",
        "coordinates": [
          10.459174595390069,
          -34.97636806267214
        ]
      }
    },
    {
      "type": "Feature",
      "properties": {
        "norad_id": 40315,
        "name": "COSMOS 2501 (702K)",
        "group": "gnss",
        "lat": 13.189248424557599,
        "lon": 9.673959176618359,
        "alt_km": 19088.673225049835,
        "timestamp": "2025-12-26T08:37:54.823144+00:00",
        "meta_object_name": "COSMOS 2501 (702K)",
        "meta_object_id": "2014-075A",
        "meta_epoch": "2025-12-25T04:55:56.926272",
        "meta_mean_motion": 2.13101331,
        "meta_eccentricity": 0.00201021,
        "meta_inclination": 63.6163,
        "meta_ra_of_asc_node": 196.393,
        "meta_arg_of_pericenter": 203.9317,
        "meta_mean_anomaly": 156.0272,
        "meta_ephemeris_type": 0,
        "meta_classification_type": "U",
        "meta_norad_cat_id": 40315,
        "meta_element_set_no": 999,
        "meta_rev_at_epoch": 8614,
        "meta_bstar": 0,
        "meta_mean_motion_dot": 1.04e-06,
        "meta_mean_motion_ddot": 0,
        "tle_line1": "1 40315U 14075A   25359.20551998  .00000104  00000+0  00000+0 0  9996",
        "tle_line2": "2 40315  63.6163 196.3930 0020102 203.9317 156.0272  2.13101331 86148"
      },
      "geometry": {
        "type": "Point",
        "coordinates": [
          9.673959176618359,
          13.189248424557599
        ]
      }
    },
    {
      "type": "Feature",
      "properties": {
        "norad_id": 40534,
        "name": "GPS BIIF-9  (PRN 26)",
        "group": "gnss",
        "lat": -33.57008298391202,
        "lon": 61.129931835534585,
        "alt_km": 20471.33341230569,
        "timestamp": "2025-12-26T08:37:54.823155+00:00",
        "meta_object_name": "GPS BIIF-9  (PRN 26)",
        "meta_object_id": "2015-013A",
        "meta_epoch": "2025-12-26T01:13:12.989856",
        "meta_mean_motion": 2.00561708,
        "meta_eccentricity": 0.0107532,
        "meta_inclination": 53.196,
        "meta_ra_of_asc_node": 211.3388,
        "meta_arg_of_pericenter": 38.7958,
        "meta_mean_anomaly": 322.0404,
        "meta_ephemeris_type": 0,
        "meta_classification_type": "U",
        "meta_norad_cat_id": 40534,
        "meta_element_set_no": 999,
        "meta_rev_at_epoch": 7835,
        "meta_bstar": 0,
        "meta_mean_motion_dot": 8.5e-07,
        "meta_mean_motion_ddot": 0,
        "tle_line1": "1 40534U 15013A   25360.05084479  .00000085  00000+0  00000+0 0  9990",
        "tle_line2": "2 40534  53.1960 211.3388 0107532  38.7958 322.0404  2.00561708 78353"
      },
      "geometry": {
        "type": "Point",
        "coordinates": [
          61.129931835534585,
          -33.57008298391202
        ]
      }
    },
    {
      "type": "Feature",
      "properties": {
        "norad_id": 40544,
        "name": "GSAT0203 (GALILEO 7)",
        "group": "gnss",
        "lat": 48.74564664057769,
        "lon": 118.11923294825431,
        "alt_km": 23234.147708503988,
        "timestamp": "2025-12-26T08:37:54.823168+00:00",
        "meta_object_name": "GSAT0203 (GALILEO 7)",
        "meta_object_id": "2015-017A",
        "meta_epoch": "2025-12-24T23:56:01.378752",
        "meta_mean_motion": 1.70475851,
        "meta_eccentricity": 0.000645,
        "meta_inclination": 56.8433,
        "meta_ra_of_asc_node": 346.3459,
        "meta_arg_of_pericenter": 275.4973,
        "meta_mean_anomaly": 84.4372,
        "meta_ephemeris_type": 0,
        "meta_classification_type": "U",
        "meta_norad_cat_id": 40544,
        "meta_element_set_no": 999,
        "meta_rev_at_epoch": 6623,
        "meta_bstar": 0,
        "meta_mean_motion_dot": -6.1e-07,
        "meta_mean_motion_ddot": 0,
        "tle_line1": "1 40544U 15017A   25358.99723818 -.00000061  00000+0  00000+0 0  9997",
        "tle_line2": "2 40544  56.8433 346.3459 0006450 275.4973  84.4372  1.70475851 66237"
      },
      "geometry": {
        "type": "Point",
        "coordinates": [
          118.11923294825431,
          48.74564664057769
        ]
      }
    }
  ]
}